<?xml version="1.0" encoding="UTF-8"?>
<gpx xmlns="http://www.topografix.com/GPX/1/1" xmlns:gpxtpx="http://www.garmin.com/xmlschemas/TrackPointExtension/v1" xmlns:xsi="http://www.w3.org/2001/XMLSchema-instance" xsi:schemaLocation="http://www.topografix.com/GPX/1/1 http://www.topografix.com/GPX/1/1/gpx.xsd" version="1.1" creator="gpx.py -- https://github.com/tkrajina/gpxpy">
  <trk>
    <name>gpx from keep</name>
    <type>Run</type>
    <trkseg>
      <trkpt lat="30.573450971036525" lon="104.19409760340976">
        <ele>481.349609375</ele>
        <time>2026-05-31T11:55:16Z</time>
      </trkpt>
      <trkpt lat="30.573419864498455" lon="104.19402649097344">
        <ele>480.144775390625</ele>
        <time>2026-05-31T11:55:19Z</time>
      </trkpt>
      <trkpt lat="30.5733248884115" lon="104.19402048559782">
        <ele>481.06427001953125</ele>
        <time>2026-05-31T11:55:25Z</time>
      </trkpt>
      <trkpt lat="30.573257869196407" lon="104.19399444688116">
        <ele>480.22137451171875</ele>
        <time>2026-05-31T11:55:28Z</time>
      </trkpt>
      <trkpt lat="30.573091918375763" lon="104.19398844467639">
        <ele>479.859375</ele>
        <time>2026-05-31T11:55:34Z</time>
      </trkpt>
      <trkpt lat="30.573018891318334" lon="104.19395639657736">
        <ele>480.63623046875</ele>
        <time>2026-05-31T11:55:37Z</time>
      </trkpt>
      <trkpt lat="30.57270198091235" lon="104.19394238827478">
        <ele>478.65447998046875</ele>
        <time>2026-05-31T11:55:49Z</time>
      </trkpt>
      <trkpt lat="30.57252296162942" lon="104.19389231596367">
        <ele>478.3031005859375</ele>
        <time>2026-05-31T11:56:01Z</time>
      </trkpt>
      <trkpt lat="30.57230402785366" lon="104.19388531450862">
        <ele>477.32806396484375</ele>
        <time>2026-05-31T11:56:16Z</time>
      </trkpt>
      <trkpt lat="30.572134124746754" lon="104.19390735745989">
        <ele>477.30694580078125</ele>
        <time>2026-05-31T11:56:28Z</time>
      </trkpt>
      <trkpt lat="30.571860129093213" lon="104.19385127971273">
        <ele>476.58294677734375</ele>
        <time>2026-05-31T11:56:46Z</time>
      </trkpt>
      <trkpt lat="30.57156016578233" lon="104.1938092255833">
        <ele>476.2447509765625</ele>
        <time>2026-05-31T11:57:07Z</time>
      </trkpt>
      <trkpt lat="30.571282280931356" lon="104.19381925410083">
        <ele>475.37811279296875</ele>
        <time>2026-05-31T11:57:31Z</time>
      </trkpt>
      <trkpt lat="30.571168289765005" lon="104.19380022863417">
        <ele>475.20367431640625</ele>
        <time>2026-05-31T11:57:43Z</time>
      </trkpt>
      <trkpt lat="30.571092022417904" lon="104.19362294691967">
        <ele>474.80999755859375</ele>
        <time>2026-05-31T11:58:04Z</time>
      </trkpt>
      <trkpt lat="30.571082939047134" lon="104.19357086342998">
        <ele>474.820556640625</ele>
        <time>2026-05-31T11:58:10Z</time>
      </trkpt>
      <trkpt lat="30.57128332743222" lon="104.19324633040445">
        <ele>474.6778564453125</ele>
        <time>2026-05-31T11:58:43Z</time>
      </trkpt>
      <trkpt lat="30.571357010217273" lon="104.19307204473301">
        <ele>475.01873779296875</ele>
        <time>2026-05-31T11:58:55Z</time>
      </trkpt>
      <trkpt lat="30.57143877512986" lon="104.19294884107356">
        <ele>475.3358154296875</ele>
        <time>2026-05-31T11:59:04Z</time>
      </trkpt>
      <trkpt lat="30.57157414426679" lon="104.19260126905372">
        <ele>475.597412109375</ele>
        <time>2026-05-31T11:59:28Z</time>
      </trkpt>
      <trkpt lat="30.571627998909687" lon="104.1925261439835">
        <ele>475.6634521484375</ele>
        <time>2026-05-31T11:59:34Z</time>
      </trkpt>
      <trkpt lat="30.571683697679262" lon="104.19235886794455">
        <ele>475.597412109375</ele>
        <time>2026-05-31T11:59:46Z</time>
      </trkpt>
      <trkpt lat="30.57174556435355" lon="104.19229275690702">
        <ele>475.62115478515625</ele>
        <time>2026-05-31T11:59:52Z</time>
      </trkpt>
      <trkpt lat="30.571803202572735" lon="104.19209042239844">
        <ele>475.520751953125</ele>
        <time>2026-05-31T12:00:04Z</time>
      </trkpt>
      <trkpt lat="30.571846035070184" lon="104.19200027232075">
        <ele>475.13763427734375</ele>
        <time>2026-05-31T12:00:10Z</time>
      </trkpt>
      <trkpt lat="30.571860865509066" lon="104.19190311178659">
        <ele>475.5445556640625</ele>
        <time>2026-05-31T12:00:16Z</time>
      </trkpt>
      <trkpt lat="30.57190571905076" lon="104.19182598273414">
        <ele>475.37811279296875</ele>
        <time>2026-05-31T12:00:22Z</time>
      </trkpt>
      <trkpt lat="30.57191050693241" lon="104.19170177767445">
        <ele>475.35693359375</ele>
        <time>2026-05-31T12:00:37Z</time>
      </trkpt>
      <trkpt lat="30.572055987699315" lon="104.19142631575485">
        <ele>475.35693359375</ele>
        <time>2026-05-31T12:01:04Z</time>
      </trkpt>
      <trkpt lat="30.57209670744107" lon="104.19127005491556">
        <ele>475.41241455078125</ele>
        <time>2026-05-31T12:01:13Z</time>
      </trkpt>
      <trkpt lat="30.572271235734412" lon="104.19102964766644">
        <ele>475.28033447265625</ele>
        <time>2026-05-31T12:01:31Z</time>
      </trkpt>
      <trkpt lat="30.572402612183854" lon="104.19069207899088">
        <ele>474.897216796875</ele>
        <time>2026-05-31T12:01:55Z</time>
      </trkpt>
      <trkpt lat="30.572546140631104" lon="104.19044666201881">
        <ele>475.0081787109375</ele>
        <time>2026-05-31T12:02:13Z</time>
      </trkpt>
      <trkpt lat="30.572646617973326" lon="104.19016318185689">
        <ele>474.97381591796875</ele>
        <time>2026-05-31T12:02:46Z</time>
      </trkpt>
      <trkpt lat="30.572714454240895" lon="104.1900820423928">
        <ele>474.5589599609375</ele>
        <time>2026-05-31T12:02:58Z</time>
      </trkpt>
      <trkpt lat="30.572731327516454" lon="104.190011923638">
        <ele>474.43743896484375</ele>
        <time>2026-05-31T12:03:07Z</time>
      </trkpt>
      <trkpt lat="30.572891738351757" lon="104.18970339615693">
        <ele>474.41632080078125</ele>
        <time>2026-05-31T12:03:28Z</time>
      </trkpt>
      <trkpt lat="30.572990330974267" lon="104.18948802749402">
        <ele>474.33966064453125</ele>
        <time>2026-05-31T12:03:43Z</time>
      </trkpt>
      <trkpt lat="30.573038052104184" lon="104.1893367690245">
        <ele>474.2841796875</ele>
        <time>2026-05-31T12:03:52Z</time>
      </trkpt>
      <trkpt lat="30.573096887057087" lon="104.18925362531193">
        <ele>474.25250244140625</ele>
        <time>2026-05-31T12:03:58Z</time>
      </trkpt>
      <trkpt lat="30.573188466785894" lon="104.18903024154784">
        <ele>474.0225830078125</ele>
        <time>2026-05-31T12:04:13Z</time>
      </trkpt>
      <trkpt lat="30.5731913735108" lon="104.18897715105138">
        <ele>473.91162109375</ele>
        <time>2026-05-31T12:04:16Z</time>
      </trkpt>
      <trkpt lat="30.573242212603095" lon="104.18889500886092">
        <ele>473.83502197265625</ele>
        <time>2026-05-31T12:04:22Z</time>
      </trkpt>
      <trkpt lat="30.573368600642485" lon="104.18856944747834">
        <ele>473.94598388671875</ele>
        <time>2026-05-31T12:04:43Z</time>
      </trkpt>
      <trkpt lat="30.57339540235821" lon="104.18846126119078">
        <ele>474.08868408203125</ele>
        <time>2026-05-31T12:04:49Z</time>
      </trkpt>
      <trkpt lat="30.57344524642835" lon="104.18838212343874">
        <ele>474.120361328125</ele>
        <time>2026-05-31T12:04:55Z</time>
      </trkpt>
      <trkpt lat="30.573598097427272" lon="104.18832802389132">
        <ele>473.63946533203125</ele>
        <time>2026-05-31T12:05:07Z</time>
      </trkpt>
      <trkpt lat="30.57376314002863" lon="104.18838611605332">
        <ele>474.13092041015625</ele>
        <time>2026-05-31T12:05:19Z</time>
      </trkpt>
      <trkpt lat="30.57404328303761" lon="104.18852534185629">
        <ele>473.67120361328125</ele>
        <time>2026-05-31T12:05:40Z</time>
      </trkpt>
      <trkpt lat="30.57431039194882" lon="104.18864253025298">
        <ele>473.5179443359375</ele>
        <time>2026-05-31T12:06:04Z</time>
      </trkpt>
      <trkpt lat="30.574488487076863" lon="104.18873367794501">
        <ele>473.26690673828125</ele>
        <time>2026-05-31T12:06:22Z</time>
      </trkpt>
      <trkpt lat="30.574630493844523" lon="104.18876672799703">
        <ele>473.46246337890625</ele>
        <time>2026-05-31T12:06:34Z</time>
      </trkpt>
      <trkpt lat="30.574830465885103" lon="104.18879176176127">
        <ele>473.1903076171875</ele>
        <time>2026-05-31T12:06:52Z</time>
      </trkpt>
      <trkpt lat="30.574914287633042" lon="104.188706612686">
        <ele>473.092529296875</ele>
        <time>2026-05-31T12:06:58Z</time>
      </trkpt>
      <trkpt lat="30.574981232258455" lon="104.1886885788955">
        <ele>473.05816650390625</ele>
        <time>2026-05-31T12:07:05Z</time>
      </trkpt>
      <trkpt lat="30.575027287299676" lon="104.18872964695531">
        <ele>472.347412109375</ele>
        <time>2026-05-31T12:07:10Z</time>
      </trkpt>
      <trkpt lat="30.575094313876892" lon="104.18875869353289">
        <ele>472.91546630859375</ele>
        <time>2026-05-31T12:07:16Z</time>
      </trkpt>
      <trkpt lat="30.57541519541308" lon="104.18875667573134">
        <ele>473.28802490234375</ele>
        <time>2026-05-31T12:07:37Z</time>
      </trkpt>
      <trkpt lat="30.575555138262523" lon="104.18875266262059">
        <ele>473.49676513671875</ele>
        <time>2026-05-31T12:07:46Z</time>
      </trkpt>
      <trkpt lat="30.575642059993744" lon="104.18872561255941">
        <ele>473.33294677734375</ele>
        <time>2026-05-31T12:07:52Z</time>
      </trkpt>
      <trkpt lat="30.575790066197953" lon="104.18875966405705">
        <ele>473.3223876953125</ele>
        <time>2026-05-31T12:08:01Z</time>
      </trkpt>
      <trkpt lat="30.575834022519096" lon="104.18874363473323">
        <ele>473.343505859375</ele>
        <time>2026-05-31T12:08:04Z</time>
      </trkpt>
      <trkpt lat="30.57613595074581" lon="104.18876465710044">
        <ele>473.73724365234375</ele>
        <time>2026-05-31T12:08:25Z</time>
      </trkpt>
      <trkpt lat="30.576416828898562" lon="104.18875262399663">
        <ele>474.33966064453125</ele>
        <time>2026-05-31T12:08:43Z</time>
      </trkpt>
      <trkpt lat="30.576720618481346" lon="104.18869451119285">
        <ele>474.0992431640625</ele>
        <time>2026-05-31T12:09:04Z</time>
      </trkpt>
      <trkpt lat="30.576766572283976" lon="104.1886774800496">
        <ele>474.08868408203125</ele>
        <time>2026-05-31T12:09:07Z</time>
      </trkpt>
      <trkpt lat="30.577078500147845" lon="104.18870050541396">
        <ele>474.37139892578125</ele>
        <time>2026-05-31T12:09:29Z</time>
      </trkpt>
      <trkpt lat="30.57741643249361" lon="104.18873154328368">
        <ele>474.77825927734375</ele>
        <time>2026-05-31T12:09:53Z</time>
      </trkpt>
      <trkpt lat="30.577696340298022" lon="104.18873653928611">
        <ele>475.21429443359375</ele>
        <time>2026-05-31T12:10:11Z</time>
      </trkpt>
      <trkpt lat="30.577930247186227" lon="104.18873152025108">
        <ele>475.40185546875</ele>
        <time>2026-05-31T12:10:26Z</time>
      </trkpt>
      <trkpt lat="30.578070226310555" lon="104.18874854304349">
        <ele>475.39129638671875</ele>
        <time>2026-05-31T12:10:35Z</time>
      </trkpt>
      <trkpt lat="30.578428081353554" lon="104.18873951161383">
        <ele>475.642333984375</ele>
        <time>2026-05-31T12:10:59Z</time>
      </trkpt>
      <trkpt lat="30.57856898506911" lon="104.18871346083505">
        <ele>475.78497314453125</ele>
        <time>2026-05-31T12:11:08Z</time>
      </trkpt>
      <trkpt lat="30.578907888662794" lon="104.18872847129533">
        <ele>475.86163330078125</ele>
        <time>2026-05-31T12:11:32Z</time>
      </trkpt>
      <trkpt lat="30.579152822682573" lon="104.1887414825445">
        <ele>476.18927001953125</ele>
        <time>2026-05-31T12:11:50Z</time>
      </trkpt>
      <trkpt lat="30.579231012281323" lon="104.18886669262828">
        <ele>476.23419189453125</ele>
        <time>2026-05-31T12:11:59Z</time>
      </trkpt>
      <trkpt lat="30.579253147090757" lon="104.18894883159768">
        <ele>475.90655517578125</ele>
        <time>2026-05-31T12:12:05Z</time>
      </trkpt>
      <trkpt lat="30.579191489545224" lon="104.18913314797858">
        <ele>476.0809326171875</ele>
        <time>2026-05-31T12:12:17Z</time>
      </trkpt>
      <trkpt lat="30.579177645746615" lon="104.18922029667084">
        <ele>476.310791015625</ele>
        <time>2026-05-31T12:12:23Z</time>
      </trkpt>
      <trkpt lat="30.57909509731823" lon="104.1894637132147">
        <ele>476.70452880859375</ele>
        <time>2026-05-31T12:12:38Z</time>
      </trkpt>
      <trkpt lat="30.579056457701405" lon="104.18966405391663">
        <ele>476.8577880859375</ele>
        <time>2026-05-31T12:12:50Z</time>
      </trkpt>
      <trkpt lat="30.578930092629214" lon="104.1900056357981">
        <ele>477.47076416015625</ele>
        <time>2026-05-31T12:13:11Z</time>
      </trkpt>
      <trkpt lat="30.578868808796656" lon="104.19040931668745">
        <ele>477.98602294921875</ele>
        <time>2026-05-31T12:13:35Z</time>
      </trkpt>
      <trkpt lat="30.57876441636304" lon="104.1907418776843">
        <ele>478.4351806640625</ele>
        <time>2026-05-31T12:13:56Z</time>
      </trkpt>
      <trkpt lat="30.57867499453095" lon="104.19106141419773">
        <ele>478.89495849609375</ele>
        <time>2026-05-31T12:14:14Z</time>
      </trkpt>
      <trkpt lat="30.57856252485787" lon="104.19134889660427">
        <ele>479.605712890625</ele>
        <time>2026-05-31T12:14:32Z</time>
      </trkpt>
      <trkpt lat="30.578513149906527" lon="104.19170649031163">
        <ele>480.068115234375</ele>
        <time>2026-05-31T12:14:53Z</time>
      </trkpt>
      <trkpt lat="30.578478625281708" lon="104.1919799424333">
        <ele>480.52789306640625</ele>
        <time>2026-05-31T12:15:11Z</time>
      </trkpt>
      <trkpt lat="30.578386181109074" lon="104.19228945471752">
        <ele>480.96649169921875</ele>
        <time>2026-05-31T12:15:32Z</time>
      </trkpt>
      <trkpt lat="30.57829780784986" lon="104.19264303674693">
        <ele>481.53460693359375</ele>
        <time>2026-05-31T12:15:53Z</time>
      </trkpt>
      <trkpt lat="30.578202515341815" lon="104.19304469450475">
        <ele>482.01812744140625</ele>
        <time>2026-05-31T12:16:17Z</time>
      </trkpt>
      <trkpt lat="30.578181772208332" lon="104.19319393737887">
        <ele>482.32464599609375</ele>
        <time>2026-05-31T12:16:26Z</time>
      </trkpt>
      <trkpt lat="30.578115078664347" lon="104.19336321420762">
        <ele>482.67340087890625</ele>
        <time>2026-05-31T12:16:38Z</time>
      </trkpt>
      <trkpt lat="30.578101202152975" lon="104.19343432969143">
        <ele>482.83984375</ele>
        <time>2026-05-31T12:16:44Z</time>
      </trkpt>
      <trkpt lat="30.57810849282435" lon="104.19361061362368">
        <ele>483.003662109375</ele>
        <time>2026-05-31T12:16:56Z</time>
      </trkpt>
      <trkpt lat="30.578022904517702" lon="104.19383998630012">
        <ele>483.18865966796875</ele>
        <time>2026-05-31T12:17:11Z</time>
      </trkpt>
      <trkpt lat="30.577963373753917" lon="104.19411042236555">
        <ele>484.1002197265625</ele>
        <time>2026-05-31T12:17:29Z</time>
      </trkpt>
      <trkpt lat="30.577904509208892" lon="104.1941795354983">
        <ele>484.4727783203125</ele>
        <time>2026-05-31T12:17:35Z</time>
      </trkpt>
      <trkpt lat="30.57782961563252" lon="104.19422761565538">
        <ele>484.8004150390625</ele>
        <time>2026-05-31T12:17:41Z</time>
      </trkpt>
      <trkpt lat="30.57777075753878" lon="104.19430073499973">
        <ele>485.09637451171875</ele>
        <time>2026-05-31T12:17:47Z</time>
      </trkpt>
      <trkpt lat="30.577699847544874" lon="104.19433980047576">
        <ele>485.3367919921875</ele>
        <time>2026-05-31T12:17:53Z</time>
      </trkpt>
      <trkpt lat="30.577634894091073" lon="104.19435382573872">
        <ele>485.43719482421875</ele>
        <time>2026-05-31T12:17:59Z</time>
      </trkpt>
      <trkpt lat="30.57732694728416" lon="104.19431878361446">
        <ele>485.9736328125</ele>
        <time>2026-05-31T12:18:20Z</time>
      </trkpt>
      <trkpt lat="30.577095015956992" lon="104.19430977961146">
        <ele>486.21405029296875</ele>
        <time>2026-05-31T12:18:35Z</time>
      </trkpt>
      <trkpt lat="30.57679903985926" lon="104.19425971293695">
        <ele>486.28009033203125</ele>
        <time>2026-05-31T12:18:56Z</time>
      </trkpt>
      <trkpt lat="30.5766041017144" lon="104.19425471366328">
        <ele>486.48883056640625</ele>
        <time>2026-05-31T12:19:11Z</time>
      </trkpt>
      <trkpt lat="30.576276118729506" lon="104.19419363075738">
        <ele>486.98297119140625</ele>
        <time>2026-05-31T12:19:35Z</time>
      </trkpt>
      <trkpt lat="30.5760641832749" lon="104.19418662903591">
        <ele>487.0595703125</ele>
        <time>2026-05-31T12:19:50Z</time>
      </trkpt>
      <trkpt lat="30.57598217797132" lon="104.19416559908953">
        <ele>487.23394775390625</ele>
        <time>2026-05-31T12:19:56Z</time>
      </trkpt>
      <trkpt lat="30.575660296790577" lon="104.19416761669133">
        <ele>487.13623046875</ele>
        <time>2026-05-31T12:20:20Z</time>
      </trkpt>
      <trkpt lat="30.57534339552111" lon="104.19415861645938">
        <ele>486.31182861328125</ele>
        <time>2026-05-31T12:20:59Z</time>
      </trkpt>
      <trkpt lat="30.575017480828194" lon="104.19413960061473">
        <ele>485.20733642578125</ele>
        <time>2026-05-31T12:21:35Z</time>
      </trkpt>
      <trkpt lat="30.574727543219506" lon="104.19411457354062">
        <ele>484.25347900390625</ele>
        <time>2026-05-31T12:22:05Z</time>
      </trkpt>
      <trkpt lat="30.574445625836216" lon="104.19410356852835">
        <ele>483.376220703125</ele>
        <time>2026-05-31T12:22:35Z</time>
      </trkpt>
      <trkpt lat="30.57413968382891" lon="104.1940725325328">
        <ele>482.586181640625</ele>
        <time>2026-05-31T12:23:05Z</time>
      </trkpt>
      <trkpt lat="30.573831750709456" lon="104.1940465046232">
        <ele>481.57952880859375</ele>
        <time>2026-05-31T12:23:44Z</time>
      </trkpt>
      <trkpt lat="30.573627790345057" lon="104.19402648167184">
        <ele>480.889892578125</ele>
        <time>2026-05-31T12:24:11Z</time>
      </trkpt>
      <trkpt lat="30.573627790345057" lon="104.19402648167184">
        <ele>475.25604248046875</ele>
        <time>2026-05-31T12:24:26Z</time>
      </trkpt>
    </trkseg>
  </trk>
</gpx>