<?xml version="1.0" encoding="UTF-8"?>
<gpx xmlns="http://www.topografix.com/GPX/1/1" xmlns:gpxtpx="http://www.garmin.com/xmlschemas/TrackPointExtension/v1" xmlns:xsi="http://www.w3.org/2001/XMLSchema-instance" xsi:schemaLocation="http://www.topografix.com/GPX/1/1 http://www.topografix.com/GPX/1/1/gpx.xsd" version="1.1" creator="gpx.py -- https://github.com/tkrajina/gpxpy">
  <trk>
    <name>gpx from keep</name>
    <type>Ride</type>
    <trkseg>
      <trkpt lat="30.567641776044926" lon="104.05768993465917">
        <ele>450.4647216796875</ele>
        <time>2026-07-25T11:56:07Z</time>
      </trkpt>
      <trkpt lat="30.56760893337676" lon="104.0576031221992">
        <ele>451.1358642578125</ele>
        <time>2026-07-25T11:56:20Z</time>
      </trkpt>
      <trkpt lat="30.567549058478463" lon="104.05754125771895">
        <ele>450.45416259765625</ele>
        <time>2026-07-25T11:56:22Z</time>
      </trkpt>
      <trkpt lat="30.567453174488886" lon="104.05749236715539">
        <ele>450.5096435546875</ele>
        <time>2026-07-25T11:56:25Z</time>
      </trkpt>
      <trkpt lat="30.56718522469937" lon="104.05751832356037">
        <ele>450.13446044921875</ele>
        <time>2026-07-25T11:56:35Z</time>
      </trkpt>
      <trkpt lat="30.567145060798023" lon="104.05762409833802">
        <ele>450.3775634765625</ele>
        <time>2026-07-25T11:56:38Z</time>
      </trkpt>
      <trkpt lat="30.56710125106324" lon="104.05811804694432">
        <ele>450.2427978515625</ele>
        <time>2026-07-25T11:56:48Z</time>
      </trkpt>
      <trkpt lat="30.56711670441031" lon="104.05844535450483">
        <ele>450.02349853515625</ele>
        <time>2026-07-25T11:56:54Z</time>
      </trkpt>
      <trkpt lat="30.567136515298575" lon="104.05855612064394">
        <ele>449.88079833984375</ele>
        <time>2026-07-25T11:56:56Z</time>
      </trkpt>
      <trkpt lat="30.567137333344384" lon="104.05866688822074">
        <ele>449.73809814453125</ele>
        <time>2026-07-25T11:56:58Z</time>
      </trkpt>
      <trkpt lat="30.567043851673283" lon="104.05898223405339">
        <ele>449.251953125</ele>
        <time>2026-07-25T11:57:04Z</time>
      </trkpt>
      <trkpt lat="30.56683735738404" lon="104.05933251757769">
        <ele>448.9005126953125</ele>
        <time>2026-07-25T11:57:12Z</time>
      </trkpt>
      <trkpt lat="30.56672115586339" lon="104.05948321237322">
        <ele>448.62310791015625</ele>
        <time>2026-07-25T11:57:16Z</time>
      </trkpt>
      <trkpt lat="30.566601770091964" lon="104.05975066937555">
        <ele>448.8555908203125</ele>
        <time>2026-07-25T11:57:22Z</time>
      </trkpt>
      <trkpt lat="30.566537174229868" lon="104.06014087825113">
        <ele>449.00885009765625</ele>
        <time>2026-07-25T11:57:30Z</time>
      </trkpt>
      <trkpt lat="30.56653640992713" lon="104.06062889536526">
        <ele>449.13043212890625</ele>
        <time>2026-07-25T11:57:40Z</time>
      </trkpt>
      <trkpt lat="30.566599918936323" lon="104.06093128911263">
        <ele>449.30743408203125</ele>
        <time>2026-07-25T11:57:46Z</time>
      </trkpt>
      <trkpt lat="30.566803117598877" lon="104.0614073388605">
        <ele>449.17529296875</ele>
        <time>2026-07-25T11:57:56Z</time>
      </trkpt>
      <trkpt lat="30.566830965068277" lon="104.06150115343284">
        <ele>448.953369140625</ele>
        <time>2026-07-25T11:57:58Z</time>
      </trkpt>
      <trkpt lat="30.56683035433316" lon="104.06190536483328">
        <ele>449.24139404296875</ele>
        <time>2026-07-25T11:58:06Z</time>
      </trkpt>
      <trkpt lat="30.566786099006887" lon="104.06208601693831">
        <ele>449.2730712890625</ele>
        <time>2026-07-25T11:58:10Z</time>
      </trkpt>
      <trkpt lat="30.566775609504067" lon="104.06241737967655">
        <ele>448.9771728515625</ele>
        <time>2026-07-25T11:58:16Z</time>
      </trkpt>
      <trkpt lat="30.56683878205007" lon="104.06296533385256">
        <ele>449.11981201171875</ele>
        <time>2026-07-25T11:58:26Z</time>
      </trkpt>
      <trkpt lat="30.566822986382626" lon="104.06351929500882">
        <ele>450.816162109375</ele>
        <time>2026-07-25T11:58:38Z</time>
      </trkpt>
      <trkpt lat="30.566808596426963" lon="104.06379578239691">
        <ele>451.14910888671875</ele>
        <time>2026-07-25T11:58:44Z</time>
      </trkpt>
      <trkpt lat="30.566847184142713" lon="104.06407726193024">
        <ele>451.61151123046875</ele>
        <time>2026-07-25T11:58:50Z</time>
      </trkpt>
      <trkpt lat="30.56699544736969" lon="104.06456636306835">
        <ele>452.62615966796875</ele>
        <time>2026-07-25T11:59:02Z</time>
      </trkpt>
      <trkpt lat="30.56703231254749" lon="104.06465420241216">
        <ele>453.738525390625</ele>
        <time>2026-07-25T11:59:06Z</time>
      </trkpt>
      <trkpt lat="30.567132502623988" lon="104.0652181861577">
        <ele>454.65277099609375</ele>
        <time>2026-07-25T11:59:16Z</time>
      </trkpt>
      <trkpt lat="30.567204804354617" lon="104.06571630234875">
        <ele>455.74664306640625</ele>
        <time>2026-07-25T11:59:26Z</time>
      </trkpt>
      <trkpt lat="30.567248314236558" lon="104.06607267792009">
        <ele>456.660888671875</ele>
        <time>2026-07-25T11:59:34Z</time>
      </trkpt>
      <trkpt lat="30.56723853064836" lon="104.06667264467181">
        <ele>455.86822509765625</ele>
        <time>2026-07-25T11:59:45Z</time>
      </trkpt>
      <trkpt lat="30.56722619034064" lon="104.06693919172453">
        <ele>455.2816162109375</ele>
        <time>2026-07-25T11:59:49Z</time>
      </trkpt>
      <trkpt lat="30.56714353930505" lon="104.06747229905713">
        <ele>453.82574462890625</ele>
        <time>2026-07-25T11:59:57Z</time>
      </trkpt>
      <trkpt lat="30.5670269063574" lon="104.06801041388952">
        <ele>452.71331787109375</ele>
        <time>2026-07-25T12:00:05Z</time>
      </trkpt>
      <trkpt lat="30.566905234398906" lon="104.06859247252642">
        <ele>452.9564208984375</ele>
        <time>2026-07-25T12:00:17Z</time>
      </trkpt>
      <trkpt lat="30.566789924849406" lon="104.06888201307972">
        <ele>453.28668212890625</ele>
        <time>2026-07-25T12:00:23Z</time>
      </trkpt>
      <trkpt lat="30.56656655007112" lon="104.06926142070733">
        <ele>453.17572021484375</ele>
        <time>2026-07-25T12:00:31Z</time>
      </trkpt>
      <trkpt lat="30.566386053585035" lon="104.06973768279131">
        <ele>452.08447265625</ele>
        <time>2026-07-25T12:00:39Z</time>
      </trkpt>
      <trkpt lat="30.566283671347144" lon="104.07009912881274">
        <ele>451.37896728515625</ele>
        <time>2026-07-25T12:00:45Z</time>
      </trkpt>
      <trkpt lat="30.566220016779315" lon="104.07069522478145">
        <ele>450.34320068359375</ele>
        <time>2026-07-25T12:00:55Z</time>
      </trkpt>
      <trkpt lat="30.566286389428853" lon="104.07123940946798">
        <ele>450.012939453125</ele>
        <time>2026-07-25T12:01:03Z</time>
      </trkpt>
      <trkpt lat="30.56635408216517" lon="104.07149902414089">
        <ele>449.24139404296875</ele>
        <time>2026-07-25T12:01:07Z</time>
      </trkpt>
      <trkpt lat="30.566507632175885" lon="104.07186648194983">
        <ele>448.7578125</ele>
        <time>2026-07-25T12:01:13Z</time>
      </trkpt>
      <trkpt lat="30.566677279536922" lon="104.07214207730735">
        <ele>448.966552734375</ele>
        <time>2026-07-25T12:01:19Z</time>
      </trkpt>
      <trkpt lat="30.566845976569375" lon="104.07237373896112">
        <ele>449.923095703125</ele>
        <time>2026-07-25T12:01:25Z</time>
      </trkpt>
      <trkpt lat="30.567231420435036" lon="104.07277914928771">
        <ele>449.968017578125</ele>
        <time>2026-07-25T12:01:37Z</time>
      </trkpt>
      <trkpt lat="30.567388116961016" lon="104.0730218037363">
        <ele>450.43304443359375</ele>
        <time>2026-07-25T12:01:43Z</time>
      </trkpt>
      <trkpt lat="30.567502795624794" lon="104.0732994150434">
        <ele>450.59686279296875</ele>
        <time>2026-07-25T12:01:49Z</time>
      </trkpt>
      <trkpt lat="30.567547436869756" lon="104.07364294395516">
        <ele>450.82940673828125</ele>
        <time>2026-07-25T12:01:55Z</time>
      </trkpt>
      <trkpt lat="30.56751301584624" lon="104.0740843516961">
        <ele>451.26800537109375</ele>
        <time>2026-07-25T12:02:03Z</time>
      </trkpt>
      <trkpt lat="30.567336567052127" lon="104.07461665691102">
        <ele>450.7633056640625</ele>
        <time>2026-07-25T12:02:13Z</time>
      </trkpt>
      <trkpt lat="30.56723330368349" lon="104.07493524790651">
        <ele>451.24688720703125</ele>
        <time>2026-07-25T12:02:19Z</time>
      </trkpt>
      <trkpt lat="30.567155856798983" lon="104.07544959448138">
        <ele>452.02899169921875</ele>
        <time>2026-07-25T12:02:29Z</time>
      </trkpt>
      <trkpt lat="30.567109419776855" lon="104.07595396555729">
        <ele>453.276123046875</ele>
        <time>2026-07-25T12:02:39Z</time>
      </trkpt>
      <trkpt lat="30.567151935399334" lon="104.07649030688937">
        <ele>454.00274658203125</ele>
        <time>2026-07-25T12:02:49Z</time>
      </trkpt>
      <trkpt lat="30.567269499795895" lon="104.07695274713994">
        <ele>453.05419921875</ele>
        <time>2026-07-25T12:02:57Z</time>
      </trkpt>
      <trkpt lat="30.56746496954276" lon="104.07750908583625">
        <ele>451.6009521484375</ele>
        <time>2026-07-25T12:03:07Z</time>
      </trkpt>
      <trkpt lat="30.567544558902046" lon="104.07798353845337">
        <ele>450.94830322265625</ele>
        <time>2026-07-25T12:03:15Z</time>
      </trkpt>
      <trkpt lat="30.56754217324888" lon="104.07847598647483">
        <ele>450.82940673828125</ele>
        <time>2026-07-25T12:03:23Z</time>
      </trkpt>
      <trkpt lat="30.567422778925074" lon="104.07904936488795">
        <ele>450.38812255859375</ele>
        <time>2026-07-25T12:03:33Z</time>
      </trkpt>
      <trkpt lat="30.5672074792961" lon="104.07955883182866">
        <ele>450.2877197265625</ele>
        <time>2026-07-25T12:03:43Z</time>
      </trkpt>
      <trkpt lat="30.567135366387422" lon="104.07975063420572">
        <ele>450.32208251953125</ele>
        <time>2026-07-25T12:03:47Z</time>
      </trkpt>
      <trkpt lat="30.567088211816415" lon="104.07999138684616">
        <ele>450.15557861328125</ele>
        <time>2026-07-25T12:03:51Z</time>
      </trkpt>
      <trkpt lat="30.567083050700248" lon="104.08022414868742">
        <ele>449.8702392578125</ele>
        <time>2026-07-25T12:03:55Z</time>
      </trkpt>
      <trkpt lat="30.56712981590477" lon="104.08054182569082">
        <ele>449.51617431640625</ele>
        <time>2026-07-25T12:04:01Z</time>
      </trkpt>
      <trkpt lat="30.56726255087982" lon="104.08086649707056">
        <ele>449.339111328125</ele>
        <time>2026-07-25T12:04:08Z</time>
      </trkpt>
      <trkpt lat="30.56754218525704" lon="104.08127408704516">
        <ele>448.98773193359375</ele>
        <time>2026-07-25T12:04:16Z</time>
      </trkpt>
      <trkpt lat="30.567841825073405" lon="104.08167369221245">
        <ele>447.4552001953125</ele>
        <time>2026-07-25T12:04:24Z</time>
      </trkpt>
      <trkpt lat="30.567975631009684" lon="104.08190946509693">
        <ele>446.9716796875</ele>
        <time>2026-07-25T12:04:28Z</time>
      </trkpt>
      <trkpt lat="30.568066440596006" lon="104.08216822171862">
        <ele>446.05743408203125</ele>
        <time>2026-07-25T12:04:32Z</time>
      </trkpt>
      <trkpt lat="30.56814406875264" lon="104.08274869411436">
        <ele>445.02166748046875</ele>
        <time>2026-07-25T12:04:40Z</time>
      </trkpt>
      <trkpt lat="30.56808878937209" lon="104.08327423721279">
        <ele>444.40338134765625</ele>
        <time>2026-07-25T12:04:48Z</time>
      </trkpt>
      <trkpt lat="30.568067608152724" lon="104.08361794542455">
        <ele>444.316162109375</ele>
        <time>2026-07-25T12:04:54Z</time>
      </trkpt>
      <trkpt lat="30.568115458641238" lon="104.08386573595101">
        <ele>444.47998046875</ele>
        <time>2026-07-25T12:04:58Z</time>
      </trkpt>
      <trkpt lat="30.568258241336473" lon="104.08418546662446">
        <ele>444.54608154296875</ele>
        <time>2026-07-25T12:05:04Z</time>
      </trkpt>
      <trkpt lat="30.5685658812668" lon="104.08468505247565">
        <ele>444.88690185546875</ele>
        <time>2026-07-25T12:05:14Z</time>
      </trkpt>
      <trkpt lat="30.568626801058777" lon="104.08480495558688">
        <ele>444.70196533203125</ele>
        <time>2026-07-25T12:05:16Z</time>
      </trkpt>
      <trkpt lat="30.568689616428387" lon="104.08514369089356">
        <ele>444.65704345703125</ele>
        <time>2026-07-25T12:05:22Z</time>
      </trkpt>
      <trkpt lat="30.568706473282358" lon="104.08543846710145">
        <ele>444.392822265625</ele>
        <time>2026-07-25T12:05:28Z</time>
      </trkpt>
      <trkpt lat="30.568565276321603" lon="104.08599106757433">
        <ele>444.59100341796875</ele>
        <time>2026-07-25T12:05:38Z</time>
      </trkpt>
      <trkpt lat="30.568526244349403" lon="104.08609699333715">
        <ele>444.733642578125</ele>
        <time>2026-07-25T12:05:40Z</time>
      </trkpt>
      <trkpt lat="30.568346189381966" lon="104.08637680354808">
        <ele>444.7574462890625</ele>
        <time>2026-07-25T12:05:46Z</time>
      </trkpt>
      <trkpt lat="30.568257141206352" lon="104.08656967346535">
        <ele>444.65704345703125</ele>
        <time>2026-07-25T12:05:50Z</time>
      </trkpt>
      <trkpt lat="30.56815404620925" lon="104.08689745456638">
        <ele>444.70196533203125</ele>
        <time>2026-07-25T12:05:56Z</time>
      </trkpt>
      <trkpt lat="30.568145946183964" lon="104.08716327763452">
        <ele>444.810302734375</ele>
        <time>2026-07-25T12:06:00Z</time>
      </trkpt>
      <trkpt lat="30.568209732211017" lon="104.08768193921483">
        <ele>444.9212646484375</ele>
        <time>2026-07-25T12:06:10Z</time>
      </trkpt>
      <trkpt lat="30.568308561832033" lon="104.08807069227434">
        <ele>445.99139404296875</ele>
        <time>2026-07-25T12:06:18Z</time>
      </trkpt>
      <trkpt lat="30.56838936176957" lon="104.08859337487465">
        <ele>446.11029052734375</ele>
        <time>2026-07-25T12:06:28Z</time>
      </trkpt>
      <trkpt lat="30.568403317964172" lon="104.08871730191302">
        <ele>445.90155029296875</ele>
        <time>2026-07-25T12:06:30Z</time>
      </trkpt>
      <trkpt lat="30.568345279203285" lon="104.08891019357874">
        <ele>446.6519775390625</ele>
        <time>2026-07-25T12:06:34Z</time>
      </trkpt>
      <trkpt lat="30.568292273802797" lon="104.08899015056097">
        <ele>446.91619873046875</ele>
        <time>2026-07-25T12:06:36Z</time>
      </trkpt>
      <trkpt lat="30.568124295568516" lon="104.0891160873512">
        <ele>447.04827880859375</ele>
        <time>2026-07-25T12:06:40Z</time>
      </trkpt>
      <trkpt lat="30.567901304305472" lon="104.08935796364958">
        <ele>445.86981201171875</ele>
        <time>2026-07-25T12:06:46Z</time>
      </trkpt>
      <trkpt lat="30.567855280022375" lon="104.08950288694255">
        <ele>445.16436767578125</ele>
        <time>2026-07-25T12:06:48Z</time>
      </trkpt>
      <trkpt lat="30.567940101113418" lon="104.0900695851355">
        <ele>443.2803955078125</ele>
        <time>2026-07-25T12:06:55Z</time>
      </trkpt>
      <trkpt lat="30.567954075336065" lon="104.09015354175322">
        <ele>442.9818115234375</ele>
        <time>2026-07-25T12:06:56Z</time>
      </trkpt>
      <trkpt lat="30.568042975884488" lon="104.09043739582998">
        <ele>443.005615234375</ele>
        <time>2026-07-25T12:07:01Z</time>
      </trkpt>
      <trkpt lat="30.568136858115732" lon="104.0908132100484">
        <ele>443.60009765625</ele>
        <time>2026-07-25T12:07:07Z</time>
      </trkpt>
      <trkpt lat="30.568309736063775" lon="104.0911040666001">
        <ele>445.06396484375</ele>
        <time>2026-07-25T12:07:13Z</time>
      </trkpt>
      <trkpt lat="30.568690531705435" lon="104.09146288786651">
        <ele>445.06396484375</ele>
        <time>2026-07-25T12:07:23Z</time>
      </trkpt>
      <trkpt lat="30.568991367166383" lon="104.0917867341428">
        <ele>445.77996826171875</ele>
        <time>2026-07-25T12:07:31Z</time>
      </trkpt>
      <trkpt lat="30.56909829994373" lon="104.09196065629429">
        <ele>445.88043212890625</ele>
        <time>2026-07-25T12:07:35Z</time>
      </trkpt>
      <trkpt lat="30.569253180608552" lon="104.09237348220313">
        <ele>445.95703125</ele>
        <time>2026-07-25T12:07:43Z</time>
      </trkpt>
      <trkpt lat="30.56928913474622" lon="104.09260639015976">
        <ele>445.83551025390625</ele>
        <time>2026-07-25T12:07:47Z</time>
      </trkpt>
      <trkpt lat="30.569269067995023" lon="104.09320117270742">
        <ele>446.0230712890625</ele>
        <time>2026-07-25T12:07:57Z</time>
      </trkpt>
      <trkpt lat="30.56925402143954" lon="104.09372299653212">
        <ele>446.17633056640625</ele>
        <time>2026-07-25T12:08:05Z</time>
      </trkpt>
      <trkpt lat="30.569232988324217" lon="104.0942558310662">
        <ele>445.703369140625</ele>
        <time>2026-07-25T12:08:15Z</time>
      </trkpt>
      <trkpt lat="30.56919797545113" lon="104.09472269858828">
        <ele>445.83551025390625</ele>
        <time>2026-07-25T12:08:23Z</time>
      </trkpt>
      <trkpt lat="30.569098002473485" lon="104.09493264645295">
        <ele>445.5712890625</ele>
        <time>2026-07-25T12:08:27Z</time>
      </trkpt>
      <trkpt lat="30.569041019687024" lon="104.09502062595637">
        <ele>445.4735107421875</ele>
        <time>2026-07-25T12:08:29Z</time>
      </trkpt>
      <trkpt lat="30.568969042843275" lon="104.09509660961298">
        <ele>445.317626953125</ele>
        <time>2026-07-25T12:08:31Z</time>
      </trkpt>
      <trkpt lat="30.568711129816286" lon="104.09525858054235">
        <ele>444.93182373046875</ele>
        <time>2026-07-25T12:08:37Z</time>
      </trkpt>
      <trkpt lat="30.568542186476822" lon="104.09542854677512">
        <ele>445.02166748046875</ele>
        <time>2026-07-25T12:08:41Z</time>
      </trkpt>
      <trkpt lat="30.568257284925217" lon="104.09578147824506">
        <ele>444.6358642578125</ele>
        <time>2026-07-25T12:08:49Z</time>
      </trkpt>
      <trkpt lat="30.568094344874" lon="104.09607342291717">
        <ele>444.55926513671875</ele>
        <time>2026-07-25T12:08:55Z</time>
      </trkpt>
      <trkpt lat="30.568019375952584" lon="104.09630337987737">
        <ele>444.6676025390625</ele>
        <time>2026-07-25T12:08:59Z</time>
      </trkpt>
      <trkpt lat="30.567966403487336" lon="104.0965843290942">
        <ele>444.86578369140625</ele>
        <time>2026-07-25T12:09:03Z</time>
      </trkpt>
      <trkpt lat="30.56795743038591" lon="104.09707324625536">
        <ele>444.226318359375</ele>
        <time>2026-07-25T12:09:11Z</time>
      </trkpt>
      <trkpt lat="30.568013433879976" lon="104.09742019180207">
        <ele>444.226318359375</ele>
        <time>2026-07-25T12:09:17Z</time>
      </trkpt>
      <trkpt lat="30.568140417929698" lon="104.09777013967738">
        <ele>445.10888671875</ele>
        <time>2026-07-25T12:09:23Z</time>
      </trkpt>
      <trkpt lat="30.56839737258841" lon="104.09822307694368">
        <ele>445.5924072265625</ele>
        <time>2026-07-25T12:09:34Z</time>
      </trkpt>
      <trkpt lat="30.56845436197715" lon="104.09830806589703">
        <ele>445.91473388671875</ele>
        <time>2026-07-25T12:09:37Z</time>
      </trkpt>
      <trkpt lat="30.568495359404597" lon="104.09841105427766">
        <ele>445.50518798828125</ele>
        <time>2026-07-25T12:09:39Z</time>
      </trkpt>
      <trkpt lat="30.56855737315066" lon="104.09869902697841">
        <ele>445.55010986328125</ele>
        <time>2026-07-25T12:09:43Z</time>
      </trkpt>
      <trkpt lat="30.56853843192246" lon="104.09907700194641">
        <ele>445.748291015625</ele>
        <time>2026-07-25T12:09:49Z</time>
      </trkpt>
      <trkpt lat="30.568515457683386" lon="104.09919599629912">
        <ele>445.37310791015625</ele>
        <time>2026-07-25T12:09:51Z</time>
      </trkpt>
      <trkpt lat="30.568364568277612" lon="104.09955798710831">
        <ele>446.20013427734375</ele>
        <time>2026-07-25T12:09:57Z</time>
      </trkpt>
      <trkpt lat="30.56829463163477" lon="104.09978398350603">
        <ele>445.8143310546875</ele>
        <time>2026-07-25T12:10:01Z</time>
      </trkpt>
      <trkpt lat="30.56822376223949" lon="104.10034498061744">
        <ele>445.69281005859375</ele>
        <time>2026-07-25T12:10:11Z</time>
      </trkpt>
      <trkpt lat="30.568205841509737" lon="104.10069598538949">
        <ele>446.45379638671875</ele>
        <time>2026-07-25T12:10:17Z</time>
      </trkpt>
      <trkpt lat="30.568237855527904" lon="104.100811986539">
        <ele>446.50927734375</ele>
        <time>2026-07-25T12:10:19Z</time>
      </trkpt>
      <trkpt lat="30.568280913310733" lon="104.1011329952145">
        <ele>447.566162109375</ele>
        <time>2026-07-25T12:10:25Z</time>
      </trkpt>
      <trkpt lat="30.568403932573716" lon="104.10139400190147">
        <ele>448.1395263671875</ele>
        <time>2026-07-25T12:10:31Z</time>
      </trkpt>
      <trkpt lat="30.568654950413112" lon="104.10181201698578">
        <ele>449.37347412109375</ele>
        <time>2026-07-25T12:10:41Z</time>
      </trkpt>
      <trkpt lat="30.568885993310627" lon="104.10226804501147">
        <ele>451.01434326171875</ele>
        <time>2026-07-25T12:10:51Z</time>
      </trkpt>
      <trkpt lat="30.569058074763984" lon="104.10275408928575">
        <ele>452.052734375</ele>
        <time>2026-07-25T12:11:01Z</time>
      </trkpt>
      <trkpt lat="30.56914617129903" lon="104.10316413805474">
        <ele>452.8797607421875</ele>
        <time>2026-07-25T12:11:09Z</time>
      </trkpt>
      <trkpt lat="30.56916126346423" lon="104.10346318094001">
        <ele>453.03302001953125</ele>
        <time>2026-07-25T12:11:15Z</time>
      </trkpt>
      <trkpt lat="30.569118414825372" lon="104.10386324786462">
        <ele>453.66192626953125</ele>
        <time>2026-07-25T12:11:23Z</time>
      </trkpt>
      <trkpt lat="30.568958649342594" lon="104.10435934629857">
        <ele>454.36737060546875</ele>
        <time>2026-07-25T12:11:33Z</time>
      </trkpt>
      <trkpt lat="30.568724911524587" lon="104.10483345496367">
        <ele>454.93017578125</ele>
        <time>2026-07-25T12:11:43Z</time>
      </trkpt>
      <trkpt lat="30.568559126063324" lon="104.10522655179923">
        <ele>454.93017578125</ele>
        <time>2026-07-25T12:11:51Z</time>
      </trkpt>
      <trkpt lat="30.56849628383326" lon="104.10555563495251">
        <ele>455.6700439453125</ele>
        <time>2026-07-25T12:11:57Z</time>
      </trkpt>
      <trkpt lat="30.568527501639604" lon="104.1060877740265">
        <ele>456.03204345703125</ele>
        <time>2026-07-25T12:12:07Z</time>
      </trkpt>
      <trkpt lat="30.568683666752964" lon="104.10657590733994">
        <ele>456.78240966796875</ele>
        <time>2026-07-25T12:12:15Z</time>
      </trkpt>
      <trkpt lat="30.568791755112173" lon="104.10684698516741">
        <ele>456.52874755859375</ele>
        <time>2026-07-25T12:12:21Z</time>
      </trkpt>
      <trkpt lat="30.56884787345138" lon="104.10713607462922">
        <ele>457.046630859375</ele>
        <time>2026-07-25T12:12:26Z</time>
      </trkpt>
      <trkpt lat="30.56882905883805" lon="104.10750019690803">
        <ele>457.30029296875</ele>
        <time>2026-07-25T12:12:34Z</time>
      </trkpt>
      <trkpt lat="30.568747386637323" lon="104.10808640892759">
        <ele>457.90802001953125</ele>
        <time>2026-07-25T12:12:45Z</time>
      </trkpt>
      <trkpt lat="30.568680724608704" lon="104.10867563716295">
        <ele>458.57916259765625</ele>
        <time>2026-07-25T12:12:57Z</time>
      </trkpt>
      <trkpt lat="30.568632952826828" lon="104.10905779384204">
        <ele>458.74566650390625</ele>
        <time>2026-07-25T12:13:05Z</time>
      </trkpt>
      <trkpt lat="30.568603011196235" lon="104.10914283049343">
        <ele>458.85662841796875</ele>
        <time>2026-07-25T12:13:07Z</time>
      </trkpt>
      <trkpt lat="30.568532066695752" lon="104.10919685633375">
        <ele>458.5025634765625</ele>
        <time>2026-07-25T12:13:09Z</time>
      </trkpt>
      <trkpt lat="30.568463104565055" lon="104.1092208695807">
        <ele>458.703369140625</ele>
        <time>2026-07-25T12:13:14Z</time>
      </trkpt>
      <trkpt lat="30.568538084433506" lon="104.10923187076321">
        <ele>458.6346435546875</ele>
        <time>2026-07-25T12:13:27Z</time>
      </trkpt>
      <trkpt lat="30.568606020868618" lon="104.10916183828503">
        <ele>458.7244873046875</ele>
        <time>2026-07-25T12:13:30Z</time>
      </trkpt>
      <trkpt lat="30.568691875070435" lon="104.1089557492363">
        <ele>458.48138427734375</ele>
        <time>2026-07-25T12:13:34Z</time>
      </trkpt>
      <trkpt lat="30.56874660867525" lon="104.10850456713219">
        <ele>458.05072021484375</ele>
        <time>2026-07-25T12:13:50Z</time>
      </trkpt>
      <trkpt lat="30.578117083095336" lon="104.16695658716161">
        <ele>452.86920166015625</ele>
        <time>2026-07-25T12:33:56Z</time>
      </trkpt>
      <trkpt lat="30.571179428343562" lon="104.18353272696588">
        <ele>454.5206298828125</ele>
        <time>2026-07-25T12:47:41Z</time>
      </trkpt>
      <trkpt lat="30.570946897902765" lon="104.18374712047371">
        <ele>454.53118896484375</ele>
        <time>2026-07-25T12:48:14Z</time>
      </trkpt>
      <trkpt lat="30.570897029450638" lon="104.18381023536541">
        <ele>454.631591796875</ele>
        <time>2026-07-25T12:48:21Z</time>
      </trkpt>
      <trkpt lat="30.57076959644309" lon="104.18409975715473">
        <ele>454.90643310546875</ele>
        <time>2026-07-25T12:48:31Z</time>
      </trkpt>
      <trkpt lat="30.570563078782257" lon="104.18432717096006">
        <ele>454.62103271484375</ele>
        <time>2026-07-25T12:48:42Z</time>
      </trkpt>
      <trkpt lat="30.570506275379145" lon="104.18442534792894">
        <ele>454.54443359375</ele>
        <time>2026-07-25T12:48:45Z</time>
      </trkpt>
      <trkpt lat="30.570445638710492" lon="104.18461568841832">
        <ele>454.245849609375</ele>
        <time>2026-07-25T12:48:51Z</time>
      </trkpt>
      <trkpt lat="30.57020065525963" lon="104.1851346176066">
        <ele>454.8192138671875</ele>
        <time>2026-07-25T12:49:05Z</time>
      </trkpt>
      <trkpt lat="30.56996359071367" lon="104.18561146846788">
        <ele>455.0728759765625</ele>
        <time>2026-07-25T12:49:15Z</time>
      </trkpt>
      <trkpt lat="30.569849929001702" lon="104.18577876753491">
        <ele>455.4375</ele>
        <time>2026-07-25T12:49:19Z</time>
      </trkpt>
      <trkpt lat="30.569625864876993" lon="104.186260621863">
        <ele>455.2816162109375</ele>
        <time>2026-07-25T12:49:29Z</time>
      </trkpt>
      <trkpt lat="30.56939169495733" lon="104.18668236832146">
        <ele>455.46923828125</ele>
        <time>2026-07-25T12:49:40Z</time>
      </trkpt>
      <trkpt lat="30.569246210253784" lon="104.18694483140567">
        <ele>455.70172119140625</ele>
        <time>2026-07-25T12:49:49Z</time>
      </trkpt>
      <trkpt lat="30.569182559774468" lon="104.1871301559619">
        <ele>455.81268310546875</ele>
        <time>2026-07-25T12:49:55Z</time>
      </trkpt>
      <trkpt lat="30.56899431587977" lon="104.18752184245069">
        <ele>456.11126708984375</ele>
        <time>2026-07-25T12:50:04Z</time>
      </trkpt>
      <trkpt lat="30.568710319443326" lon="104.18803674259027">
        <ele>456.76129150390625</ele>
        <time>2026-07-25T12:50:15Z</time>
      </trkpt>
      <trkpt lat="30.568657564199427" lon="104.18816596695595">
        <ele>456.660888671875</ele>
        <time>2026-07-25T12:50:18Z</time>
      </trkpt>
      <trkpt lat="30.568609950412984" lon="104.18837733158188">
        <ele>456.6846923828125</ele>
        <time>2026-07-25T12:50:24Z</time>
      </trkpt>
      <trkpt lat="30.56864838079308" lon="104.18863176518406">
        <ele>456.629150390625</ele>
        <time>2026-07-25T12:50:28Z</time>
      </trkpt>
      <trkpt lat="30.56864723100419" lon="104.18854561797023">
        <ele>456.7718505859375</ele>
        <time>2026-07-25T12:50:33Z</time>
      </trkpt>
      <trkpt lat="30.56881627979158" lon="104.18860771657583">
        <ele>456.30682373046875</ele>
        <time>2026-07-25T12:50:36Z</time>
      </trkpt>
      <trkpt lat="30.568687408190744" lon="104.18808282281356">
        <ele>455.9237060546875</ele>
        <time>2026-07-25T12:50:38Z</time>
      </trkpt>
      <trkpt lat="30.568911566860795" lon="104.1876480641139">
        <ele>455.7889404296875</ele>
        <time>2026-07-25T12:50:48Z</time>
      </trkpt>
      <trkpt lat="30.569156630741738" lon="104.18716521792342">
        <ele>455.4375</ele>
        <time>2026-07-25T12:50:58Z</time>
      </trkpt>
      <trkpt lat="30.56937577147136" lon="104.18672243881171">
        <ele>455.40313720703125</ele>
        <time>2026-07-25T12:51:08Z</time>
      </trkpt>
      <trkpt lat="30.56950926672327" lon="104.18646398231432">
        <ele>454.65277099609375</ele>
        <time>2026-07-25T12:51:15Z</time>
      </trkpt>
      <trkpt lat="30.569578185585" lon="104.18643192327136">
        <ele>454.54443359375</ele>
        <time>2026-07-25T12:51:18Z</time>
      </trkpt>
      <trkpt lat="30.56999537906404" lon="104.18662424002588">
        <ele>454.85357666015625</ele>
        <time>2026-07-25T12:51:26Z</time>
      </trkpt>
      <trkpt lat="30.570452651560824" lon="104.18686964672345">
        <ele>454.6422119140625</ele>
        <time>2026-07-25T12:51:36Z</time>
      </trkpt>
      <trkpt lat="30.570902909638168" lon="104.18710603711774">
        <ele>455.12835693359375</ele>
        <time>2026-07-25T12:51:46Z</time>
      </trkpt>
      <trkpt lat="30.571068006619345" lon="104.18719418257939">
        <ele>454.798095703125</ele>
        <time>2026-07-25T12:51:50Z</time>
      </trkpt>
      <trkpt lat="30.57116697508635" lon="104.18719618161424">
        <ele>454.94073486328125</ele>
        <time>2026-07-25T12:51:52Z</time>
      </trkpt>
      <trkpt lat="30.57141906930676" lon="104.18730035079973">
        <ele>455.0279541015625</ele>
        <time>2026-07-25T12:51:58Z</time>
      </trkpt>
      <trkpt lat="30.571841368978035" lon="104.18755577364574">
        <ele>455.0279541015625</ele>
        <time>2026-07-25T12:52:08Z</time>
      </trkpt>
      <trkpt lat="30.57213845885398" lon="104.18766695228796">
        <ele>455.0279541015625</ele>
        <time>2026-07-25T12:52:14Z</time>
      </trkpt>
      <trkpt lat="30.572568710211165" lon="104.18789733009116">
        <ele>455.0279541015625</ele>
        <time>2026-07-25T12:52:24Z</time>
      </trkpt>
      <trkpt lat="30.573013892212003" lon="104.18809164436672">
        <ele>455.0279541015625</ele>
        <time>2026-07-25T12:52:34Z</time>
      </trkpt>
      <trkpt lat="30.573161981451136" lon="104.18817277708638">
        <ele>455.0279541015625</ele>
        <time>2026-07-25T12:52:38Z</time>
      </trkpt>
      <trkpt lat="30.5732070985166" lon="104.18824890571598">
        <ele>455.0279541015625</ele>
        <time>2026-07-25T12:52:40Z</time>
      </trkpt>
      <trkpt lat="30.57322923593804" lon="104.18833204729403">
        <ele>455.0279541015625</ele>
        <time>2026-07-25T12:52:42Z</time>
      </trkpt>
      <trkpt lat="30.573230434932164" lon="104.18844624286254">
        <ele>455.0279541015625</ele>
        <time>2026-07-25T12:52:45Z</time>
      </trkpt>
      <trkpt lat="30.57303428145523" lon="104.18889201305862">
        <ele>455.0279541015625</ele>
        <time>2026-07-25T12:52:55Z</time>
      </trkpt>
      <trkpt lat="30.572780289599063" lon="104.18942092322098">
        <ele>455.0279541015625</ele>
        <time>2026-07-25T12:53:07Z</time>
      </trkpt>
      <trkpt lat="30.572635984999287" lon="104.18979355983363">
        <ele>455.0279541015625</ele>
        <time>2026-07-25T12:53:15Z</time>
      </trkpt>
      <trkpt lat="30.572542330917084" lon="104.18997486969626">
        <ele>455.0279541015625</ele>
        <time>2026-07-25T12:53:19Z</time>
      </trkpt>
      <trkpt lat="30.57244786430839" lon="104.19026536237645">
        <ele>455.0279541015625</ele>
        <time>2026-07-25T12:53:25Z</time>
      </trkpt>
      <trkpt lat="30.572257548848572" lon="104.19062497333248">
        <ele>455.0279541015625</ele>
        <time>2026-07-25T12:53:33Z</time>
      </trkpt>
      <trkpt lat="30.572033516624487" lon="104.19114484984947">
        <ele>455.0279541015625</ele>
        <time>2026-07-25T12:53:45Z</time>
      </trkpt>
      <trkpt lat="30.57192297874497" lon="104.19139326695898">
        <ele>455.0279541015625</ele>
        <time>2026-07-25T12:53:52Z</time>
      </trkpt>
      <trkpt lat="30.571861473395366" lon="104.19167173026332">
        <ele>455.0279541015625</ele>
        <time>2026-07-25T12:54:00Z</time>
      </trkpt>
      <trkpt lat="30.571875646609584" lon="104.19177690317086">
        <ele>455.0279541015625</ele>
        <time>2026-07-25T12:54:04Z</time>
      </trkpt>
      <trkpt lat="30.57180575793043" lon="104.19182799051045">
        <ele>455.0279541015625</ele>
        <time>2026-07-25T12:54:09Z</time>
      </trkpt>
      <trkpt lat="30.571770929628574" lon="104.19192214714256">
        <ele>455.0279541015625</ele>
        <time>2026-07-25T12:54:13Z</time>
      </trkpt>
      <trkpt lat="30.57181203528871" lon="104.19199326231215">
        <ele>455.0279541015625</ele>
        <time>2026-07-25T12:54:37Z</time>
      </trkpt>
      <trkpt lat="30.571831167272425" lon="104.19207539646484">
        <ele>455.0279541015625</ele>
        <time>2026-07-25T12:54:53Z</time>
      </trkpt>
      <trkpt lat="30.571889050269025" lon="104.19201830004064">
        <ele>455.0279541015625</ele>
        <time>2026-07-25T12:55:00Z</time>
      </trkpt>
      <trkpt lat="30.57192091026634" lon="104.19194217339962">
        <ele>455.0279541015625</ele>
        <time>2026-07-25T12:55:07Z</time>
      </trkpt>
      <trkpt lat="30.571928760043026" lon="104.19185502956485">
        <ele>455.0279541015625</ele>
        <time>2026-07-25T12:55:15Z</time>
      </trkpt>
      <trkpt lat="30.571924981644262" lon="104.19198524407717">
        <ele>455.0279541015625</ele>
        <time>2026-07-25T12:55:28Z</time>
      </trkpt>
      <trkpt lat="30.571815556389385" lon="104.1923027701844">
        <ele>455.0279541015625</ele>
        <time>2026-07-25T12:55:51Z</time>
      </trkpt>
      <trkpt lat="30.571856376409553" lon="104.19220460744829">
        <ele>455.0279541015625</ele>
        <time>2026-07-25T12:55:56Z</time>
      </trkpt>
      <trkpt lat="30.57188338709266" lon="104.19221662595312">
        <ele>459.30841064453125</ele>
        <time>2026-07-25T12:56:07Z</time>
      </trkpt>
    </trkseg>
  </trk>
</gpx>