<?xml version="1.0" encoding="UTF-8"?>
<gpx xmlns="http://www.topografix.com/GPX/1/1" xmlns:gpxtpx="http://www.garmin.com/xmlschemas/TrackPointExtension/v1" xmlns:xsi="http://www.w3.org/2001/XMLSchema-instance" xsi:schemaLocation="http://www.topografix.com/GPX/1/1 http://www.topografix.com/GPX/1/1/gpx.xsd" version="1.1" creator="gpx.py -- https://github.com/tkrajina/gpxpy">
  <trk>
    <name>gpx from keep</name>
    <type>Run</type>
    <trkseg>
      <trkpt lat="30.57341897747538" lon="104.19409460003361">
        <ele>479.8597412109375</ele>
        <time>2026-05-30T13:54:59Z</time>
      </trkpt>
      <trkpt lat="30.573278911428435" lon="104.19402449407093">
        <ele>479.96807861328125</ele>
        <time>2026-05-30T13:55:05Z</time>
      </trkpt>
      <trkpt lat="30.573180926454782" lon="104.19401247920422">
        <ele>479.25726318359375</ele>
        <time>2026-05-30T13:55:08Z</time>
      </trkpt>
      <trkpt lat="30.57308498218334" lon="104.1940255043503">
        <ele>478.7103271484375</ele>
        <time>2026-05-30T13:55:11Z</time>
      </trkpt>
      <trkpt lat="30.572753997235157" lon="104.19396341966564">
        <ele>478.239990234375</ele>
        <time>2026-05-30T13:55:23Z</time>
      </trkpt>
      <trkpt lat="30.57260403234981" lon="104.19395240871378">
        <ele>477.7802734375</ele>
        <time>2026-05-30T13:55:29Z</time>
      </trkpt>
      <trkpt lat="30.572475981657057" lon="104.19389432127916">
        <ele>477.22271728515625</ele>
        <time>2026-05-30T13:55:41Z</time>
      </trkpt>
      <trkpt lat="30.57240198473006" lon="104.19388030209073">
        <ele>477.03515625</ele>
        <time>2026-05-30T13:55:47Z</time>
      </trkpt>
      <trkpt lat="30.572261049769093" lon="104.19388932285945">
        <ele>477.03515625</ele>
        <time>2026-05-30T13:55:56Z</time>
      </trkpt>
      <trkpt lat="30.57218912180031" lon="104.19391737106457">
        <ele>477.03515625</ele>
        <time>2026-05-30T13:55:59Z</time>
      </trkpt>
      <trkpt lat="30.57191914798732" lon="104.19387531565422">
        <ele>477.03515625</ele>
        <time>2026-05-30T13:56:17Z</time>
      </trkpt>
      <trkpt lat="30.5716152176733" lon="104.19385229227663">
        <ele>477.03515625</ele>
        <time>2026-05-30T13:56:38Z</time>
      </trkpt>
      <trkpt lat="30.571409242565228" lon="104.19382325485519">
        <ele>475.24102783203125</ele>
        <time>2026-05-30T13:56:53Z</time>
      </trkpt>
      <trkpt lat="30.571200324927922" lon="104.19382827224294">
        <ele>475.24102783203125</ele>
        <time>2026-05-30T13:57:08Z</time>
      </trkpt>
      <trkpt lat="30.571168190077422" lon="104.19374013206247">
        <ele>475.55810546875</ele>
        <time>2026-05-30T13:57:14Z</time>
      </trkpt>
      <trkpt lat="30.57111607714126" lon="104.19366100711488">
        <ele>475.55810546875</ele>
        <time>2026-05-30T13:57:20Z</time>
      </trkpt>
      <trkpt lat="30.5711079651553" lon="104.19359189619855">
        <ele>475.55810546875</ele>
        <time>2026-05-30T13:57:29Z</time>
      </trkpt>
      <trkpt lat="30.571249464741076" lon="104.19332145343185">
        <ele>473.97271728515625</ele>
        <time>2026-05-30T13:57:50Z</time>
      </trkpt>
      <trkpt lat="30.57139196265664" lon="104.19305100904543">
        <ele>473.97271728515625</ele>
        <time>2026-05-30T13:58:08Z</time>
      </trkpt>
      <trkpt lat="30.571550383062903" lon="104.1927384938704">
        <ele>473.97271728515625</ele>
        <time>2026-05-30T13:58:29Z</time>
      </trkpt>
      <trkpt lat="30.571650955396855" lon="104.19250510859014">
        <ele>473.97271728515625</ele>
        <time>2026-05-30T13:58:44Z</time>
      </trkpt>
      <trkpt lat="30.57169066652714" lon="104.19234183975398">
        <ele>473.97271728515625</ele>
        <time>2026-05-30T13:58:53Z</time>
      </trkpt>
      <trkpt lat="30.571834156060987" lon="104.19206938645704">
        <ele>473.97271728515625</ele>
        <time>2026-05-30T13:59:11Z</time>
      </trkpt>
      <trkpt lat="30.571873984511726" lon="104.19197623153205">
        <ele>473.97271728515625</ele>
        <time>2026-05-30T13:59:17Z</time>
      </trkpt>
      <trkpt lat="30.571872893433007" lon="104.19192214257814">
        <ele>473.97271728515625</ele>
        <time>2026-05-30T13:59:20Z</time>
      </trkpt>
      <trkpt lat="30.572037263142118" lon="104.19158457843166">
        <ele>473.97271728515625</ele>
        <time>2026-05-30T13:59:41Z</time>
      </trkpt>
      <trkpt lat="30.57216871765997" lon="104.19129108658717">
        <ele>474.6280517578125</ele>
        <time>2026-05-30T13:59:59Z</time>
      </trkpt>
      <trkpt lat="30.572304152242534" lon="104.190987576174">
        <ele>474.6280517578125</ele>
        <time>2026-05-30T14:00:17Z</time>
      </trkpt>
      <trkpt lat="30.572448566696288" lon="104.19067504848371">
        <ele>474.94512939453125</ele>
        <time>2026-05-30T14:00:35Z</time>
      </trkpt>
      <trkpt lat="30.57249938222505" lon="104.19057788377324">
        <ele>473.70849609375</ele>
        <time>2026-05-30T14:00:41Z</time>
      </trkpt>
      <trkpt lat="30.5725363038649" lon="104.19053981843558">
        <ele>473.70849609375</ele>
        <time>2026-05-30T14:00:44Z</time>
      </trkpt>
      <trkpt lat="30.572651874341727" lon="104.19031343393023">
        <ele>473.70849609375</ele>
        <time>2026-05-30T14:00:59Z</time>
      </trkpt>
      <trkpt lat="30.572715417690066" lon="104.19006100695972">
        <ele>474.0810546875</ele>
        <time>2026-05-30T14:01:14Z</time>
      </trkpt>
      <trkpt lat="30.57281703979696" lon="104.18986266832023">
        <ele>474.0810546875</ele>
        <time>2026-05-30T14:01:26Z</time>
      </trkpt>
      <trkpt lat="30.572889699286954" lon="104.18968035732364">
        <ele>474.1259765625</ele>
        <time>2026-05-30T14:01:38Z</time>
      </trkpt>
      <trkpt lat="30.573031243598958" lon="104.1894459544057">
        <ele>474.1048583984375</ele>
        <time>2026-05-30T14:01:53Z</time>
      </trkpt>
      <trkpt lat="30.573067919950624" lon="104.18926664871458">
        <ele>474.0810546875</ele>
        <time>2026-05-30T14:02:02Z</time>
      </trkpt>
      <trkpt lat="30.573137538862884" lon="104.1890612966622">
        <ele>474.2237548828125</ele>
        <time>2026-05-30T14:02:14Z</time>
      </trkpt>
      <trkpt lat="30.57316819368195" lon="104.18886896779053">
        <ele>473.993896484375</ele>
        <time>2026-05-30T14:02:26Z</time>
      </trkpt>
      <trkpt lat="30.57324702615661" lon="104.18878882760366">
        <ele>474.244873046875</ele>
        <time>2026-05-30T14:02:32Z</time>
      </trkpt>
      <trkpt lat="30.573408453642603" lon="104.18849331546768">
        <ele>473.98333740234375</ele>
        <time>2026-05-30T14:02:50Z</time>
      </trkpt>
      <trkpt lat="30.573600259361346" lon="104.1884211834053">
        <ele>473.98333740234375</ele>
        <time>2026-05-30T14:03:02Z</time>
      </trkpt>
      <trkpt lat="30.573776282233524" lon="104.18847025954996">
        <ele>473.98333740234375</ele>
        <time>2026-05-30T14:03:14Z</time>
      </trkpt>
      <trkpt lat="30.574056404123244" lon="104.18859746460103">
        <ele>473.98333740234375</ele>
        <time>2026-05-30T14:03:32Z</time>
      </trkpt>
      <trkpt lat="30.574320493051754" lon="104.18870263245934">
        <ele>473.98333740234375</ele>
        <time>2026-05-30T14:03:50Z</time>
      </trkpt>
      <trkpt lat="30.574478591761572" lon="104.18879177753246">
        <ele>473.98333740234375</ele>
        <time>2026-05-30T14:04:02Z</time>
      </trkpt>
      <trkpt lat="30.574754627229645" lon="104.18886889668958">
        <ele>473.98333740234375</ele>
        <time>2026-05-30T14:04:20Z</time>
      </trkpt>
      <trkpt lat="30.57500660671576" lon="104.18890895368084">
        <ele>473.98333740234375</ele>
        <time>2026-05-30T14:04:35Z</time>
      </trkpt>
      <trkpt lat="30.575310379424675" lon="104.18884082396411">
        <ele>473.1641845703125</ele>
        <time>2026-05-30T14:04:53Z</time>
      </trkpt>
      <trkpt lat="30.575613319608337" lon="104.18886885820284">
        <ele>473.1641845703125</ele>
        <time>2026-05-30T14:05:11Z</time>
      </trkpt>
      <trkpt lat="30.575714279908322" lon="104.18886685026267">
        <ele>473.1641845703125</ele>
        <time>2026-05-30T14:05:17Z</time>
      </trkpt>
      <trkpt lat="30.57599613170398" lon="104.18883979151968">
        <ele>473.1641845703125</ele>
        <time>2026-05-30T14:05:35Z</time>
      </trkpt>
      <trkpt lat="30.576289993041907" lon="104.18882074589241">
        <ele>473.77459716796875</ele>
        <time>2026-05-30T14:05:53Z</time>
      </trkpt>
      <trkpt lat="30.576625828736045" lon="104.18879568812427">
        <ele>473.77459716796875</ele>
        <time>2026-05-30T14:06:14Z</time>
      </trkpt>
      <trkpt lat="30.57691368855547" lon="104.18877463933191">
        <ele>473.77459716796875</ele>
        <time>2026-05-30T14:06:32Z</time>
      </trkpt>
      <trkpt lat="30.57714957049727" lon="104.18875559628036">
        <ele>473.77459716796875</ele>
        <time>2026-05-30T14:06:47Z</time>
      </trkpt>
      <trkpt lat="30.577438489075433" lon="104.18876860555207">
        <ele>474.63861083984375</ele>
        <time>2026-05-30T14:07:05Z</time>
      </trkpt>
      <trkpt lat="30.577745399337083" lon="104.18878061230512">
        <ele>474.63861083984375</ele>
        <time>2026-05-30T14:07:23Z</time>
      </trkpt>
      <trkpt lat="30.577942321310022" lon="104.18877659664128">
        <ele>474.63861083984375</ele>
        <time>2026-05-30T14:07:35Z</time>
      </trkpt>
      <trkpt lat="30.57803631702259" lon="104.18879362148135">
        <ele>475.65850830078125</ele>
        <time>2026-05-30T14:07:41Z</time>
      </trkpt>
      <trkpt lat="30.578255197880054" lon="104.18877057236061">
        <ele>475.6241455078125</ele>
        <time>2026-05-30T14:07:56Z</time>
      </trkpt>
      <trkpt lat="30.57851921231098" lon="104.18883366817595">
        <ele>475.54754638671875</ele>
        <time>2026-05-30T14:08:11Z</time>
      </trkpt>
      <trkpt lat="30.578809055209323" lon="104.18880360392991">
        <ele>475.54754638671875</ele>
        <time>2026-05-30T14:08:29Z</time>
      </trkpt>
      <trkpt lat="30.57905591531716" lon="104.18877454330338">
        <ele>475.54754638671875</ele>
        <time>2026-05-30T14:08:44Z</time>
      </trkpt>
      <trkpt lat="30.579133909748744" lon="104.18878756202562">
        <ele>475.54754638671875</ele>
        <time>2026-05-30T14:08:50Z</time>
      </trkpt>
      <trkpt lat="30.57921510340172" lon="104.1889157769916">
        <ele>475.54754638671875</ele>
        <time>2026-05-30T14:08:59Z</time>
      </trkpt>
      <trkpt lat="30.579220303451937" lon="104.18903197461461">
        <ele>475.54754638671875</ele>
        <time>2026-05-30T14:09:05Z</time>
      </trkpt>
      <trkpt lat="30.57912691237504" lon="104.18936354202575">
        <ele>475.54754638671875</ele>
        <time>2026-05-30T14:09:23Z</time>
      </trkpt>
      <trkpt lat="30.579033614732637" lon="104.18975020046834">
        <ele>475.54754638671875</ele>
        <time>2026-05-30T14:09:44Z</time>
      </trkpt>
      <trkpt lat="30.578927259203123" lon="104.19010179774908">
        <ele>477.11175537109375</ele>
        <time>2026-05-30T14:10:02Z</time>
      </trkpt>
      <trkpt lat="30.578838866034282" lon="104.19043636335158">
        <ele>477.11175537109375</ele>
        <time>2026-05-30T14:10:20Z</time>
      </trkpt>
      <trkpt lat="30.578730461200127" lon="104.19076091097806">
        <ele>477.11175537109375</ele>
        <time>2026-05-30T14:10:38Z</time>
      </trkpt>
      <trkpt lat="30.578682642898265" lon="104.1908570735478">
        <ele>477.11175537109375</ele>
        <time>2026-05-30T14:10:44Z</time>
      </trkpt>
      <trkpt lat="30.57861431350148" lon="104.19123570652694">
        <ele>477.11175537109375</ele>
        <time>2026-05-30T14:11:05Z</time>
      </trkpt>
      <trkpt lat="30.578579809716402" lon="104.19152017947268">
        <ele>477.11175537109375</ele>
        <time>2026-05-30T14:11:20Z</time>
      </trkpt>
      <trkpt lat="30.5784973965307" lon="104.19184872557241">
        <ele>477.11175537109375</ele>
        <time>2026-05-30T14:11:41Z</time>
      </trkpt>
      <trkpt lat="30.578437964777834" lon="104.19217226022673">
        <ele>480.68145751953125</ele>
        <time>2026-05-30T14:11:59Z</time>
      </trkpt>
      <trkpt lat="30.57836350803694" lon="104.19247876556346">
        <ele>481.326171875</ele>
        <time>2026-05-30T14:12:17Z</time>
      </trkpt>
      <trkpt lat="30.578274073562707" lon="104.19279628754917">
        <ele>481.326171875</ele>
        <time>2026-05-30T14:12:35Z</time>
      </trkpt>
      <trkpt lat="30.57820261242553" lon="104.19310278873718">
        <ele>482.4993896484375</ele>
        <time>2026-05-30T14:12:53Z</time>
      </trkpt>
      <trkpt lat="30.57812022030519" lon="104.19344935309314">
        <ele>482.4993896484375</ele>
        <time>2026-05-30T14:13:14Z</time>
      </trkpt>
      <trkpt lat="30.578045778299035" lon="104.19376887104103">
        <ele>482.4993896484375</ele>
        <time>2026-05-30T14:13:32Z</time>
      </trkpt>
      <trkpt lat="30.577945421623998" lon="104.1941354632169">
        <ele>482.4993896484375</ele>
        <time>2026-05-30T14:13:53Z</time>
      </trkpt>
      <trkpt lat="30.577900545381777" lon="104.19420056928473">
        <ele>482.4993896484375</ele>
        <time>2026-05-30T14:13:59Z</time>
      </trkpt>
      <trkpt lat="30.577825643522704" lon="104.1942436414238">
        <ele>482.4993896484375</ele>
        <time>2026-05-30T14:14:05Z</time>
      </trkpt>
      <trkpt lat="30.57771684801957" lon="104.1943438061034">
        <ele>482.4993896484375</ele>
        <time>2026-05-30T14:14:14Z</time>
      </trkpt>
      <trkpt lat="30.577482971982274" lon="104.19436785488791">
        <ele>482.4993896484375</ele>
        <time>2026-05-30T14:14:29Z</time>
      </trkpt>
      <trkpt lat="30.57743696214567" lon="104.19435183139997">
        <ele>482.4993896484375</ele>
        <time>2026-05-30T14:14:33Z</time>
      </trkpt>
      <trkpt lat="30.577288019119713" lon="104.19435384125678">
        <ele>482.4993896484375</ele>
        <time>2026-05-30T14:14:41Z</time>
      </trkpt>
      <trkpt lat="30.57697405455011" lon="104.19430678022951">
        <ele>486.6265869140625</ele>
        <time>2026-05-30T14:15:00Z</time>
      </trkpt>
      <trkpt lat="30.576692075033723" lon="104.19425771452445">
        <ele>486.6265869140625</ele>
        <time>2026-05-30T14:15:18Z</time>
      </trkpt>
      <trkpt lat="30.576408145710687" lon="104.19423869684329">
        <ele>486.6265869140625</ele>
        <time>2026-05-30T14:15:36Z</time>
      </trkpt>
      <trkpt lat="30.57611721716297" lon="104.19421867786744">
        <ele>486.6265869140625</ele>
        <time>2026-05-30T14:15:54Z</time>
      </trkpt>
      <trkpt lat="30.575831276810174" lon="104.19419264905788">
        <ele>486.6265869140625</ele>
        <time>2026-05-30T14:16:12Z</time>
      </trkpt>
      <trkpt lat="30.575533383671445" lon="104.1941926623845">
        <ele>486.6265869140625</ele>
        <time>2026-05-30T14:16:30Z</time>
      </trkpt>
      <trkpt lat="30.575254399275828" lon="104.1941415932189">
        <ele>486.6265869140625</ele>
        <time>2026-05-30T14:16:48Z</time>
      </trkpt>
      <trkpt lat="30.575160414737788" lon="104.19413057980589">
        <ele>486.13250732421875</ele>
        <time>2026-05-30T14:16:54Z</time>
      </trkpt>
      <trkpt lat="30.57511646524171" lon="104.19415161540314">
        <ele>486.13250732421875</ele>
        <time>2026-05-30T14:16:57Z</time>
      </trkpt>
      <trkpt lat="30.57497547600317" lon="104.19412758327408">
        <ele>486.13250732421875</ele>
        <time>2026-05-30T14:17:06Z</time>
      </trkpt>
      <trkpt lat="30.574789532627918" lon="104.19412158198136">
        <ele>486.13250732421875</ele>
        <time>2026-05-30T14:17:18Z</time>
      </trkpt>
      <trkpt lat="30.574495563262687" lon="104.19407652302404">
        <ele>486.13250732421875</ele>
        <time>2026-05-30T14:17:39Z</time>
      </trkpt>
      <trkpt lat="30.574225672984735" lon="104.19408454792028">
        <ele>483.011962890625</ele>
        <time>2026-05-30T14:17:57Z</time>
      </trkpt>
      <trkpt lat="30.574067646597978" lon="104.19403447482593">
        <ele>483.011962890625</ele>
        <time>2026-05-30T14:18:09Z</time>
      </trkpt>
      <trkpt lat="30.573750711678095" lon="104.19400544248403">
        <ele>481.78594970703125</ele>
        <time>2026-05-30T14:18:30Z</time>
      </trkpt>
      <trkpt lat="30.573540793197907" lon="104.19400945829253">
        <ele>481.239013671875</ele>
        <time>2026-05-30T14:18:45Z</time>
      </trkpt>
      <trkpt lat="30.57342986756142" lon="104.19403049694176">
        <ele>480.96417236328125</ele>
        <time>2026-05-30T14:18:54Z</time>
      </trkpt>
    </trkseg>
  </trk>
</gpx>